#dP2021  4  9  0  0  0.00000000      97 __u+U IGS14 FIT  IAC
## 2152 432000.00000000   900.00000000 59313 0.0000000000000
+  123   C01C02C03C04C05C06C07C08C09C10C11C12C13C14C16C19C20
+        C21C22C23C24C25C26C27C28C29C30C32C33C34C35C36C37C38
+        C39C40C41C42C43C44C45C46C60E01E02E03E04E05E07E08E09
+        E11E12E13E14E15E18E19E21E24E25E26E27E30E31E33E36G01
+        G02G03G04G05G06G07G08G09G10G11G12G13G14G15G16G17G18
+        G19G20G21G22G23G24G25G26G27G29G30G31G32J01J02J03J07
+        R01R02R03R04R05R07R08R09R11R12R13R14R15R16R17R18R19
+        R20R21R22R24  0  0  0  0  0  0  0  0  0  0  0  0  0
++        13 13 13 13 13  9  9  9  9  9  9  8  8  8  9  7  7
++         7  7  7  7  7  7  7  7  7  7  7  7  7  7  7  7  8
++         8  8  8  8  8  7  7  7 14  4  4  4  4  4  4  4  4
++         4  4  4  4  4  5  4  4  4  4  4  4  5  4  4  5  3
++         3  3  3  3  3  4  3  3  3  0  3  4  3  3  3  3  3
++         3  3  4  3  3  3  3  3  3  3  3  3  3  8  8  8 13
++         7  5  5  5  5  5  5  5  7  5  7  5  5  7  5  5  7
++         7  6  7  5  0  0  0  0  0  0  0  0  0  0  0  0  0
%c M  cc GPS ccc cccc cccc cccc cccc ccccc ccccc ccccc ccccc
%c cc cc ccc ccc cccc cccc cccc cccc ccccc ccccc ccccc ccccc
%f  1.2500000  1.025000000  0.00000000000  0.000000000000000
%f  0.0000000  0.000000000  0.00000000000  0.000000000000000
%i    0    0    0    0      0      0      0      0         0
%i    0    0    0    0      0      0      0      0         0
/* INFORMATION & ANALYSIS CENTER (IAC)            FINAL DATA
/* S/V CLOCKS ARE ALIGNED TO GNSS TIME                      
/* G:C1WC2W R:C1PC2P E:C1XC5X C:C2IC6I J:C1CC2S             
/* PCV:IGS14_2148 OL/AL:FES2004  NONE     YN ORB:CoN CLK:CoN
*  2021 04 09 21 45  0.00000000
PC01 -34387.710227  24413.752351    -56.285840   -575.569007
PC02   4450.408148  41946.938702    386.353600    772.268450
PC03 -14746.759742  39543.931107   -553.762517 999999.999999
PC04 -39592.065812  14500.871927   -512.137869    695.670772
PC05  21951.557000  36038.371243    404.970788     67.869737
PC06 -15165.471595  20949.847990  33689.278304    261.888196
PC07 -23541.097062  34822.396116  -5621.988709   -103.991361
PC08  -6619.861630  32220.783011 -26049.219571   -893.255932
PC09   1631.429094  25794.855378  33673.803785    607.342410
PC10 -11437.987075  36469.145986 -18078.627023    -58.896753
PC11  -9275.587681 -17853.780988  19412.211915   -818.793879
PC12  10485.283596 -11962.719566  22959.035712    931.378309
PC13   2724.543253  39433.476689 -14210.679343    215.062204
PC14   1471.704026 -19098.820117 -20242.215528    426.907297
PC16 -11008.148265  21891.862388  34410.075941   -775.499896
PC19   8274.540322  13671.010111  22910.120940    792.828411
PC20  -9553.501708  21187.000974  15491.066840   -950.378158
PC21  22572.119105 -16310.464224   1615.620703   -932.676584
PC22  21843.326239  -1958.499682  17248.237203   -955.782977
PC23 -16388.922464  -7347.729374  21357.719907   -885.872425
PC24   2348.050578 -26593.930236  -8178.898398   -808.692542
PC25 -10985.612459 -23636.796187   9989.244085   -935.031003
PC26  12343.809406 -14641.778022 -20318.575238    923.301644
PC27 -19316.925084   6187.261846 -19175.114897    512.768811
PC28 -26412.951137  -7800.390096  -4503.970092    -88.192540
PC29  18606.547568  16458.534004 -12730.120371    376.635283
PC30   -888.611517  16372.257874 -22589.707747    459.033747
PC32 -22439.574999  16524.985235  -1556.793886   -935.494269
PC33  -8313.815261 -13661.736966 -22855.592253   -942.099818
PC34    196.100241 -16595.093346  22421.065982   -699.560214
PC35  26683.068057   7102.572161   4177.188851   -334.624206
PC36  10234.982181  24084.313673  -9671.254328   -732.926602
PC37 -13063.164852  13421.566639  20694.478628   -892.756349
PC38  -5058.849847  35330.610382 -22347.021133    141.254507
PC39  -7179.276236  23117.974200  34542.343924     30.169244
PC40 -17924.440485  33319.797576 -18714.514362    149.538695
PC41 -21739.946175   1812.957893 -17345.678106   -941.617877
PC42  10193.946453 -21252.622948 -14877.637950   -926.864677
PC43 -18085.682435 -16731.063149  13070.664647   -678.222353
PC44  19348.961166  -6744.645853  18952.897386    129.480261
PC45  16298.453146   7201.987734 -21471.570431    409.533292
PC46  -1622.528833  26852.257563   7354.769922    323.651992
PC60   7290.042624  41502.873798  -1844.329528 999999.999999
PE01   9411.864197  17628.675845 -21837.240515  -1083.582590
PE02  -9468.785039 -17546.970662  21876.866386    211.039408
PE03 -18795.616077 -10878.767335 -20115.748408   -418.343070
PE04  29106.733671  -1995.602140   5009.837712   -746.782526
PE05   2730.410308 -17576.568965 -23653.275228   -290.133207
PE07 -22425.373594  13961.495210  13375.089881   -523.575145
PE08 -29129.034705   2407.585022  -4712.850200   6020.090483
PE09  22239.249528 -14052.946724 -13547.173560   5706.271357
PE11  11163.509106 -11799.494149  24738.762504   6112.632061
PE12  22282.248811   7466.345247  18015.359761   5267.733906
PE13 -11383.297511  11442.441751 -24807.202015    414.790594
PE14   8487.776570  19512.881318 -22906.875242  -1391.379682
PE15 -22241.127136  -7379.348797 -18069.738394    820.284596
PE18 -19726.377336 -11693.725504  12029.520299  -1522.074436
PE19  16678.542369  11978.776349  21329.574733    248.231820
PE21  -3958.932322  28180.387915  -8142.858135   -658.422632
PE24  15990.045105 -22170.453282 -11404.555434   -838.530766
PE25   4104.358847 -28217.706176   7957.003536   -530.599622
PE26   6629.874121  23810.801912 -16286.124876   1943.217302
PE27 -15563.004201  22756.090346  10759.745635     -7.772028
PE30 -17835.229087   2899.408787  23428.039452   3038.006174
PE31  17938.484039  -4005.383758 -23200.877106   -480.004093
PE33  19996.969554  21823.521318    720.930461   -467.383193
PE36  -6140.514114 -23484.406414  16934.439292   -191.521714
PG01  17825.704911   7204.591424  18226.868654    720.388341
PG02 -13489.137802 -22807.206231   2032.237059   -594.187523
PG03  17836.030603  -4437.880517  19052.064251   -132.287777
PG04  26551.188891   1425.047078    391.722469   -190.970240
PG05 -10108.280527 -12709.306870 -21139.409430    -38.628116
PG06  -3871.155669 -23315.132096  12121.828900      6.085359
PG07  13105.244821  -7778.783467 -21399.790966    117.089280
PG08  24461.165975   5968.058948  -8928.025722    -16.919522
PG09  23671.370937  -7129.972900  -9806.887212   -337.722615
PG10 -11061.883422  23735.377498   3589.627133    -98.685783
PG11      0.000000      0.000000      0.000000 999999.999999
PG12 -16872.484172    241.251797  20219.153763    -25.631835
PG13 -17584.451569 -13071.677988 -15236.137528    117.985630
PG14  12843.359500 -23084.518029   2645.858010     97.116002
PG15 -25047.021940  -3992.622618  -8823.244359   -157.285775
PG16   5945.580662  15770.693243 -20652.568883   -307.191008
PG17   9690.441263 -13470.654701  21164.989373    423.771446
PG18 -10341.210531  11879.819426 -21384.793440    351.601543
PG19    202.892631 -14689.991341  21846.137063    -15.072516
PG20 -17542.687262  11276.003491 -16272.028988    523.338609
PG21  19812.187955  12963.160924  13215.226972    109.771856
PG22  14924.008637   5537.777979  21450.350958   -641.596089
PG23 -16638.324000  19299.123799  -7431.791063    114.325327
PG24 -19689.355704 -11287.004120  13864.913364     -0.030127
PG25 -18424.446039  13859.494095  12676.174930    115.474753
PG26   -383.084268  22430.314277 -14068.872514     69.952148
PG27  15588.773154  12305.787782 -17985.665671   -109.800464
PG29 -23823.237840   5138.082793 -10657.276213   -327.158493
PG30   3774.456105 -19771.880434 -17159.604391   -410.595019
PG31   5382.495614  24023.814262   9256.903961   -110.644202
PG32  -6908.805754  14783.915402  21031.340921     22.066308
PJ01 -30757.867713  28174.450998  11197.347051   -363.826282
PJ02 -29358.498756  26560.187277  19289.492016      5.123160
PJ03 -28520.985383  15710.055528 -22195.393129     -3.105569
PJ07 -25399.647081  33658.525730     45.105945     -0.010523
PR01  22082.648427 -12695.419674  -1198.472307     77.644308
PR02   8378.766588 -14484.180907 -19229.506314    474.175407
PR03  -9315.934371  -7261.356657 -22554.967688     33.929467
PR04 -21436.019955   4114.645345 -13163.623073     81.683492
PR05 -21632.770453  13006.453941   3615.842249     69.694227
PR07  10001.390878   6870.614355  22484.685557    -42.546826
PR08  21494.351437  -4046.773925  13201.075363    -58.439159
PR09  -1636.976229  25439.599629   1662.410884    -12.858314
PR11  10747.065616   2891.186187 -22945.286567      1.211074
PR12   8995.860350 -16227.656559 -17494.638184    219.542365
PR13   1859.459100 -25338.987433  -2301.649732    -53.193522
PR14  -6491.467624 -19550.129507  15042.194086     62.970329
PR15 -10868.937500  -2555.383203  22949.297184    104.461294
PR16  -8471.163733  17127.165753  16800.426863    -13.596259
PR17 -17977.953864 -16094.271364   8327.431807    414.894939
PR18 -21922.569235  -9678.432725  -8640.249181     72.656297
PR19 -14875.609323    915.025010 -20700.524067   -139.145004
PR20   2893.823315  13544.991435 -21425.820146    -46.986044
PR21  18571.920251  15926.467023  -7186.506253   -200.584289
PR22  21788.443414   9226.378748   9648.800700   -106.985478
PR24  -3487.998137 -14139.579856  20959.317013     38.234827
EOF
